SENTINEL-6              
1 46984U 20086A   24135.65898846 -.00000028  00000+0  14455-3 0  9998
2 46984  66.0414 280.9064 0007776 270.5816  89.4308 12.80930985162533
